CCSDS_OMM_VERS = 2.0
CREATION_DATE  = 
ORIGINATOR     = 

OBJECT_NAME    = STARLINK-36864
OBJECT_ID      = 2026-041F
CENTER_NAME    = EARTH
REF_FRAME      = TEME
TIME_SYSTEM    = UTC
MEAN_ELEMENT_THEORY = SGP/SGP4

EPOCH          = 2026-03-18T20:00:01.999872
MEAN_MOTION    = 15.75194111
ECCENTRICITY   = .0001445
INCLINATION    = 53.1599
RA_OF_ASC_NODE = 16.4324
ARG_OF_PERICENTER = 102.0314
MEAN_ANOMALY   = 231.6625

EPHEMERIS_TYPE = 0
CLASSIFICATION_TYPE = U
NORAD_CAT_ID   = 68045
ELEMENT_SET_NO = 999
REV_AT_EPOCH   = 384
BSTAR          = .55175191E-3
MEAN_MOTION_DOT = .84621E-3
MEAN_MOTION_DDOT = 0

CCSDS_OMM_VERS = 2.0
CREATION_DATE  = 
ORIGINATOR     = 

OBJECT_NAME    = STARLINK-36321
OBJECT_ID      = 2026-041G
CENTER_NAME    = EARTH
REF_FRAME      = TEME
TIME_SYSTEM    = UTC
MEAN_ELEMENT_THEORY = SGP/SGP4

EPOCH          = 2026-03-18T19:44:53.338848
MEAN_MOTION    = 15.81127345
ECCENTRICITY   = .0002347
INCLINATION    = 53.1599
RA_OF_ASC_NODE = 16.3091
ARG_OF_PERICENTER = 121.3774
MEAN_ANOMALY   = 238.7478

EPHEMERIS_TYPE = 0
CLASSIFICATION_TYPE = U
NORAD_CAT_ID   = 68046
ELEMENT_SET_NO = 999
REV_AT_EPOCH   = 266
BSTAR          = .26077591E-2
MEAN_MOTION_DOT = .554889E-2
MEAN_MOTION_DDOT = 0

CCSDS_OMM_VERS = 2.0
CREATION_DATE  = 
ORIGINATOR     = 

OBJECT_NAME    = STARLINK-36181
OBJECT_ID      = 2026-041H
CENTER_NAME    = EARTH
REF_FRAME      = TEME
TIME_SYSTEM    = UTC
MEAN_ELEMENT_THEORY = SGP/SGP4

EPOCH          = 2026-03-18T22:48:02.503008
MEAN_MOTION    = 15.80904405
ECCENTRICITY   = .00013534
INCLINATION    = 53.1603
RA_OF_ASC_NODE = 15.6800
ARG_OF_PERICENTER = 301.2755
MEAN_ANOMALY   = 58.8135

EPHEMERIS_TYPE = 0
CLASSIFICATION_TYPE = U
NORAD_CAT_ID   = 68047
ELEMENT_SET_NO = 999
REV_AT_EPOCH   = 268
BSTAR          = .12956457E-2
MEAN_MOTION_DOT = .263351E-2
MEAN_MOTION_DDOT = 0

CCSDS_OMM_VERS = 2.0
CREATION_DATE  = 
ORIGINATOR     = 

OBJECT_NAME    = STARLINK-36318
OBJECT_ID      = 2026-041J
CENTER_NAME    = EARTH
REF_FRAME      = TEME
TIME_SYSTEM    = UTC
MEAN_ELEMENT_THEORY = SGP/SGP4

EPOCH          = 2026-03-18T20:00:01.999872
MEAN_MOTION    = 15.75206832
ECCENTRICITY   = .00010148
INCLINATION    = 53.1606
RA_OF_ASC_NODE = 16.3832
ARG_OF_PERICENTER = 99.7391
MEAN_ANOMALY   = 257.8371

EPHEMERIS_TYPE = 0
CLASSIFICATION_TYPE = U
NORAD_CAT_ID   = 68048
ELEMENT_SET_NO = 999
REV_AT_EPOCH   = 384
BSTAR          = .42142842E-3
MEAN_MOTION_DOT = .64362E-3
MEAN_MOTION_DDOT = 0

CCSDS_OMM_VERS = 2.0
CREATION_DATE  = 
ORIGINATOR     = 

OBJECT_NAME    = STARLINK-36885
OBJECT_ID      = 2026-041K
CENTER_NAME    = EARTH
REF_FRAME      = TEME
TIME_SYSTEM    = UTC
MEAN_ELEMENT_THEORY = SGP/SGP4

EPOCH          = 2026-03-18T20:00:01.999872
MEAN_MOTION    = 15.75193791
ECCENTRICITY   = .00008807
INCLINATION    = 53.1605
RA_OF_ASC_NODE = 16.3790
ARG_OF_PERICENTER = 113.2131
MEAN_ANOMALY   = 246.2363

EPHEMERIS_TYPE = 0
CLASSIFICATION_TYPE = U
NORAD_CAT_ID   = 68049
ELEMENT_SET_NO = 999
REV_AT_EPOCH   = 384
BSTAR          = .52873562E-3
MEAN_MOTION_DOT = .81027E-3
MEAN_MOTION_DDOT = 0

CCSDS_OMM_VERS = 2.0
CREATION_DATE  = 
ORIGINATOR     = 

OBJECT_NAME    = STARLINK-36945
OBJECT_ID      = 2026-041L
CENTER_NAME    = EARTH
REF_FRAME      = TEME
TIME_SYSTEM    = UTC
MEAN_ELEMENT_THEORY = SGP/SGP4

EPOCH          = 2026-03-18T22:44:47.782464
MEAN_MOTION    = 15.80927651
ECCENTRICITY   = .00017508
INCLINATION    = 53.1602
RA_OF_ASC_NODE = 15.6655
ARG_OF_PERICENTER = 129.5151
MEAN_ANOMALY   = 230.6027

EPHEMERIS_TYPE = 0
CLASSIFICATION_TYPE = U
NORAD_CAT_ID   = 68050
ELEMENT_SET_NO = 999
REV_AT_EPOCH   = 268
BSTAR          = .16935267E-2
MEAN_MOTION_DOT = .348255E-2
MEAN_MOTION_DDOT = 0

CCSDS_OMM_VERS = 2.0
CREATION_DATE  = 
ORIGINATOR     = 

OBJECT_NAME    = STARLINK-35911
OBJECT_ID      = 2026-041M
CENTER_NAME    = EARTH
REF_FRAME      = TEME
TIME_SYSTEM    = UTC
MEAN_ELEMENT_THEORY = SGP/SGP4

EPOCH          = 2026-03-18T07:32:16.912032
MEAN_MOTION    = 15.80945826
ECCENTRICITY   = .00010632
INCLINATION    = 53.1598
RA_OF_ASC_NODE = 18.8240
ARG_OF_PERICENTER = 72.6086
MEAN_ANOMALY   = 287.5053

EPHEMERIS_TYPE = 0
CLASSIFICATION_TYPE = U
NORAD_CAT_ID   = 68051
ELEMENT_SET_NO = 999
REV_AT_EPOCH   = 258
BSTAR          = .94187403E-3
MEAN_MOTION_DOT = .189979E-2
MEAN_MOTION_DDOT = 0

CCSDS_OMM_VERS = 2.0
CREATION_DATE  = 
ORIGINATOR     = 

OBJECT_NAME    = STARLINK-35808
OBJECT_ID      = 2026-041N
CENTER_NAME    = EARTH
REF_FRAME      = TEME
TIME_SYSTEM    = UTC
MEAN_ELEMENT_THEORY = SGP/SGP4

EPOCH          = 2026-03-18T22:41:33.639072
MEAN_MOTION    = 15.80953001
ECCENTRICITY   = .00010385
INCLINATION    = 53.1599
RA_OF_ASC_NODE = 15.6498
ARG_OF_PERICENTER = 122.5403
MEAN_ANOMALY   = 237.5720

EPHEMERIS_TYPE = 0
CLASSIFICATION_TYPE = U
NORAD_CAT_ID   = 68052
ELEMENT_SET_NO = 999
REV_AT_EPOCH   = 268
BSTAR          = .79621498E-3
MEAN_MOTION_DOT = .159981E-2
MEAN_MOTION_DDOT = 0

CCSDS_OMM_VERS = 2.0
CREATION_DATE  = 
ORIGINATOR     = 

OBJECT_NAME    = STARLINK-36919
OBJECT_ID      = 2026-041P
CENTER_NAME    = EARTH
REF_FRAME      = TEME
TIME_SYSTEM    = UTC
MEAN_ELEMENT_THEORY = SGP/SGP4

EPOCH          = 2026-03-18T22:40:28.729344
MEAN_MOTION    = 15.80949069
ECCENTRICITY   = .00014867
INCLINATION    = 53.1600
RA_OF_ASC_NODE = 15.6436
ARG_OF_PERICENTER = 126.1117
MEAN_ANOMALY   = 234.0044

EPHEMERIS_TYPE = 0
CLASSIFICATION_TYPE = U
NORAD_CAT_ID   = 68053
ELEMENT_SET_NO = 999
REV_AT_EPOCH   = 268
BSTAR          = .93006977E-3
MEAN_MOTION_DOT = .187565E-2
MEAN_MOTION_DDOT = 0

CCSDS_OMM_VERS = 2.0
CREATION_DATE  = 
ORIGINATOR     = 

OBJECT_NAME    = STARLINK-36924
OBJECT_ID      = 2026-041Q
CENTER_NAME    = EARTH
REF_FRAME      = TEME
TIME_SYSTEM    = UTC
MEAN_ELEMENT_THEORY = SGP/SGP4

EPOCH          = 2026-03-18T20:00:01.999872
MEAN_MOTION    = 15.75206804
ECCENTRICITY   = .00010612
INCLINATION    = 53.1609
RA_OF_ASC_NODE = 16.3301
ARG_OF_PERICENTER = 101.7858
MEAN_ANOMALY   = 281.5487

EPHEMERIS_TYPE = 0
CLASSIFICATION_TYPE = U
NORAD_CAT_ID   = 68054
ELEMENT_SET_NO = 999
REV_AT_EPOCH   = 384
BSTAR          = .31529667E-3
MEAN_MOTION_DOT = .47897E-3
MEAN_MOTION_DDOT = 0

CCSDS_OMM_VERS = 2.0
CREATION_DATE  = 
ORIGINATOR     = 

OBJECT_NAME    = STARLINK-35998
OBJECT_ID      = 2026-041R
CENTER_NAME    = EARTH
REF_FRAME      = TEME
TIME_SYSTEM    = UTC
MEAN_ELEMENT_THEORY = SGP/SGP4

EPOCH          = 2026-03-18T22:39:23.823936
MEAN_MOTION    = 15.80894301
ECCENTRICITY   = .00012073
INCLINATION    = 53.1600
RA_OF_ASC_NODE = 15.6399
ARG_OF_PERICENTER = 122.0230
MEAN_ANOMALY   = 238.0911

EPHEMERIS_TYPE = 0
CLASSIFICATION_TYPE = U
NORAD_CAT_ID   = 68055
ELEMENT_SET_NO = 999
REV_AT_EPOCH   = 268
BSTAR          = .99674351E-3
MEAN_MOTION_DOT = .200865E-2
MEAN_MOTION_DDOT = 0

CCSDS_OMM_VERS = 2.0
CREATION_DATE  = 
ORIGINATOR     = 

OBJECT_NAME    = STARLINK-36845
OBJECT_ID      = 2026-041S
CENTER_NAME    = EARTH
REF_FRAME      = TEME
TIME_SYSTEM    = UTC
MEAN_ELEMENT_THEORY = SGP/SGP4

EPOCH          = 2026-03-18T22:37:14.372544
MEAN_MOTION    = 15.80918535
ECCENTRICITY   = .00010627
INCLINATION    = 53.1600
RA_OF_ASC_NODE = 15.6291
ARG_OF_PERICENTER = 115.0409
MEAN_ANOMALY   = 245.0725

EPHEMERIS_TYPE = 0
CLASSIFICATION_TYPE = U
NORAD_CAT_ID   = 68056
ELEMENT_SET_NO = 999
REV_AT_EPOCH   = 268
BSTAR          = .7290041E-3
MEAN_MOTION_DOT = .145944E-2
MEAN_MOTION_DDOT = 0

CCSDS_OMM_VERS = 2.0
CREATION_DATE  = 
ORIGINATOR     = 

OBJECT_NAME    = STARLINK-36954
OBJECT_ID      = 2026-041T
CENTER_NAME    = EARTH
REF_FRAME      = TEME
TIME_SYSTEM    = UTC
MEAN_ELEMENT_THEORY = SGP/SGP4

EPOCH          = 2026-03-18T20:00:01.999872
MEAN_MOTION    = 15.75200737
ECCENTRICITY   = .00009844
INCLINATION    = 53.1608
RA_OF_ASC_NODE = 16.3254
ARG_OF_PERICENTER = 108.9333
MEAN_ANOMALY   = 276.2604

EPHEMERIS_TYPE = 0
CLASSIFICATION_TYPE = U
NORAD_CAT_ID   = 68057
ELEMENT_SET_NO = 999
REV_AT_EPOCH   = 384
BSTAR          = .53896357E-3
MEAN_MOTION_DOT = .82648E-3
MEAN_MOTION_DDOT = 0

CCSDS_OMM_VERS = 2.0
CREATION_DATE  = 
ORIGINATOR     = 

OBJECT_NAME    = STARLINK-36899
OBJECT_ID      = 2026-041U
CENTER_NAME    = EARTH
REF_FRAME      = TEME
TIME_SYSTEM    = UTC
MEAN_ELEMENT_THEORY = SGP/SGP4

EPOCH          = 2026-03-18T20:00:01.999872
MEAN_MOTION    = 15.75197684
ECCENTRICITY   = .0001137
INCLINATION    = 53.1607
RA_OF_ASC_NODE = 16.2764
ARG_OF_PERICENTER = 95.8518
MEAN_ANOMALY   = 313.2364

EPHEMERIS_TYPE = 0
CLASSIFICATION_TYPE = U
NORAD_CAT_ID   = 68058
ELEMENT_SET_NO = 999
REV_AT_EPOCH   = 384
BSTAR          = .44032515E-3
MEAN_MOTION_DOT = .67273E-3
MEAN_MOTION_DDOT = 0

CCSDS_OMM_VERS = 2.0
CREATION_DATE  = 
ORIGINATOR     = 

OBJECT_NAME    = STARLINK-36917
OBJECT_ID      = 2026-041V
CENTER_NAME    = EARTH
REF_FRAME      = TEME
TIME_SYSTEM    = UTC
MEAN_ELEMENT_THEORY = SGP/SGP4

EPOCH          = 2026-03-18T20:00:01.999872
MEAN_MOTION    = 15.75952971
ECCENTRICITY   = .0001094
INCLINATION    = 53.1601
RA_OF_ASC_NODE = 16.1684
ARG_OF_PERICENTER = 85.9115
MEAN_ANOMALY   = 16.1625

EPHEMERIS_TYPE = 0
CLASSIFICATION_TYPE = U
NORAD_CAT_ID   = 68059
ELEMENT_SET_NO = 999
REV_AT_EPOCH   = 384
BSTAR          = -.74924413E-2
MEAN_MOTION_DOT = -.1066184E-1
MEAN_MOTION_DDOT = 0

